{
  "type": "FeatureCollection",
  "name": "sample",
  "crs": { "type": "name", "properties": { "name": "urn:ogc:def:crs:OGC:1.3:CRS84" } },
  "features": [
    { "type": "Feature", "properties": { "id": 1, "nome": "area_a" },
      "geometry": { "type": "Polygon", "coordinates": [ [ [12.500, 41.800], [12.510, 41.800], [12.510, 41.808], [12.500, 41.808], [12.500, 41.800] ] ] } },
    { "type": "Feature", "properties": { "id": 2, "nome": "area_b" },
      "geometry": { "type": "Polygon", "coordinates": [ [ [12.515, 41.802], [12.524, 41.802], [12.524, 41.810], [12.515, 41.810], [12.515, 41.802] ] ] } },
    { "type": "Feature", "properties": { "id": 3, "nome": "area_c" },
      "geometry": { "type": "Polygon", "coordinates": [ [ [12.505, 41.812], [12.516, 41.812], [12.516, 41.820], [12.505, 41.820], [12.505, 41.812] ] ] } }
  ]
}
